{
  "type": "FeatureCollection",
  "name": "Polygon_Escritura1073_FerminSuarez",
  "crs": {
    "type": "name",
    "properties": {
      "name": "urn:ogc:def:crs:OGC:1.3:CRS84"
    }
  },
  "features": [
    {
      "type": "Feature",
      "properties": {
        "name": "Lote 7",
        "lote": "Lote_7",
        "documento": "Escritura 1073 (Ferm\u00edn Su\u00e1rez)",
        "area_m2": 33727.85,
        "area_plazas": 5.27,
        "area_hectareas": 3.37,
        "vertices": 6,
        "source_crs": "EPSG:3115 (MAGNA-SIRGAS Colombia Oeste)"
      },
      "geometry": {
        "type": "Polygon",
        "coordinates": [
          [
            [
              -76.1934274,
              3.4825462
            ],
            [
              -76.1937288,
              3.4811368
            ],
            [
              -76.1955424,
              3.4812132
            ],
            [
              -76.1959872,
              3.480841
            ],
            [
              -76.1950097,
              3.4822849
            ],
            [
              -76.1951509,
              3.4829407
            ],
            [
              -76.1934274,
              3.4825462
            ]
          ]
        ]
      }
    },
    {
      "type": "Feature",
      "properties": {
        "name": "Lote 6",
        "lote": "Lote_6",
        "documento": "Escritura 1073 (Ferm\u00edn Su\u00e1rez)",
        "area_m2": 2735.61,
        "area_plazas": 0.43,
        "area_hectareas": 0.27,
        "vertices": 4,
        "source_crs": "EPSG:3115 (MAGNA-SIRGAS Colombia Oeste)"
      },
      "geometry": {
        "type": "Polygon",
        "coordinates": [
          [
            [
              -76.1950053,
              3.4822805
            ],
            [
              -76.1952707,
              3.482223
            ],
            [
              -76.1961343,
              3.4807253
            ],
            [
              -76.1959892,
              3.480839
            ],
            [
              -76.1950053,
              3.4822805
            ]
          ]
        ]
      }
    },
    {
      "type": "Feature",
      "properties": {
        "name": "Lote 5",
        "lote": "Lote_5",
        "documento": "Escritura 1073 (Ferm\u00edn Su\u00e1rez)",
        "area_m2": 17964.45,
        "area_plazas": 2.81,
        "area_hectareas": 1.8,
        "vertices": 11,
        "source_crs": "EPSG:3115 (MAGNA-SIRGAS Colombia Oeste)"
      },
      "geometry": {
        "type": "Polygon",
        "coordinates": [
          [
            [
              -76.1952643,
              3.4822256
            ],
            [
              -76.1961243,
              3.4807354
            ],
            [
              -76.1970029,
              3.4799575
            ],
            [
              -76.1971017,
              3.4797107
            ],
            [
              -76.1969421,
              3.4812172
            ],
            [
              -76.1963954,
              3.4817168
            ],
            [
              -76.1961734,
              3.4816815
            ],
            [
              -76.1960751,
              3.4817548
            ],
            [
              -76.1959249,
              3.4817519
            ],
            [
              -76.1956028,
              3.4819716
            ],
            [
              -76.1955786,
              3.4821516
            ],
            [
              -76.1952643,
              3.4822256
            ]
          ]
        ]
      }
    },
    {
      "type": "Feature",
      "properties": {
        "name": "Lote 4",
        "lote": "Lote_4",
        "documento": "Escritura 1073 (Ferm\u00edn Su\u00e1rez)",
        "area_m2": 27390.87,
        "area_plazas": 4.28,
        "area_hectareas": 2.74,
        "vertices": 9,
        "source_crs": "EPSG:3115 (MAGNA-SIRGAS Colombia Oeste)"
      },
      "geometry": {
        "type": "Polygon",
        "coordinates": [
          [
            [
              -76.1969407,
              3.4812235
            ],
            [
              -76.1975069,
              3.4807209
            ],
            [
              -76.1983017,
              3.4804942
            ],
            [
              -76.1981807,
              3.479505
            ],
            [
              -76.1967051,
              3.4784529
            ],
            [
              -76.1966888,
              3.4788094
            ],
            [
              -76.1964706,
              3.478856
            ],
            [
              -76.1967513,
              3.4790677
            ],
            [
              -76.1971081,
              3.479703
            ],
            [
              -76.1969407,
              3.4812235
            ]
          ]
        ]
      }
    },
    {
      "type": "Feature",
      "properties": {
        "name": "Camino",
        "lote": "Camino",
        "documento": "Escritura 1073 (Ferm\u00edn Su\u00e1rez)",
        "area_m2": 1239.44,
        "area_plazas": 0.19,
        "area_hectareas": 0.12,
        "vertices": 4,
        "source_crs": "EPSG:3115 (MAGNA-SIRGAS Colombia Oeste)"
      },
      "geometry": {
        "type": "Polygon",
        "coordinates": [
          [
            [
              -76.1983488,
              3.4808477
            ],
            [
              -76.1982941,
              3.4808587
            ],
            [
              -76.1974874,
              3.4789418
            ],
            [
              -76.1975658,
              3.479013
            ],
            [
              -76.1983488,
              3.4808477
            ]
          ]
        ]
      }
    },
    {
      "type": "Feature",
      "properties": {
        "name": "Lote 8",
        "lote": "Lote_8",
        "documento": "Escritura 1073 (Ferm\u00edn Su\u00e1rez)",
        "area_m2": 29555.19,
        "area_plazas": 4.62,
        "area_hectareas": 2.96,
        "vertices": 8,
        "source_crs": "EPSG:3115 (MAGNA-SIRGAS Colombia Oeste)"
      },
      "geometry": {
        "type": "Polygon",
        "coordinates": [
          [
            [
              -76.1951506,
              3.4829347
            ],
            [
              -76.1934353,
              3.4825481
            ],
            [
              -76.1929772,
              3.4837187
            ],
            [
              -76.1943623,
              3.4840457
            ],
            [
              -76.1948062,
              3.4840573
            ],
            [
              -76.1948641,
              3.4838748
            ],
            [
              -76.1954673,
              3.4833742
            ],
            [
              -76.1952182,
              3.4833445
            ],
            [
              -76.1951506,
              3.4829347
            ]
          ]
        ]
      }
    }
  ]
}