{
  "type": "FeatureCollection",
  "name": "Polygon_Escritura296",
  "crs": {
    "type": "name",
    "properties": {
      "name": "urn:ogc:def:crs:OGC:1.3:CRS84"
    }
  },
  "features": [
    {
      "type": "Feature",
      "properties": {
        "name": "Escritura 296",
        "predio": "La Trinidad",
        "area_m2": 162418.45,
        "area_plazas": 25.38,
        "area_hectareas": 16.24,
        "vertices": 42,
        "source_crs": "EPSG:3115 (MAGNA-SIRGAS Colombia Oeste)"
      },
      "geometry": {
        "type": "Polygon",
        "coordinates": [
          [
            [
              -76.1957866,
              3.486
            ],
            [
              -76.1952895,
              3.4854577
            ],
            [
              -76.1949092,
              3.4857526
            ],
            [
              -76.1939823,
              3.4853395
            ],
            [
              -76.19406,
              3.4849794
            ],
            [
              -76.1941948,
              3.4846265
            ],
            [
              -76.1943749,
              3.4840477
            ],
            [
              -76.1948114,
              3.4840566
            ],
            [
              -76.1950261,
              3.4837936
            ],
            [
              -76.1952796,
              3.4835456
            ],
            [
              -76.1953468,
              3.4833908
            ],
            [
              -76.1952163,
              3.4833459
            ],
            [
              -76.1951432,
              3.4829257
            ],
            [
              -76.1950058,
              3.4822904
            ],
            [
              -76.1955784,
              3.4821521
            ],
            [
              -76.1958529,
              3.4816988
            ],
            [
              -76.1960428,
              3.4816741
            ],
            [
              -76.1961964,
              3.4815988
            ],
            [
              -76.1962887,
              3.4816033
            ],
            [
              -76.1964604,
              3.4816475
            ],
            [
              -76.1969409,
              3.4812198
            ],
            [
              -76.1974227,
              3.480779
            ],
            [
              -76.1975078,
              3.4807218
            ],
            [
              -76.1977144,
              3.4806705
            ],
            [
              -76.1983293,
              3.480486
            ],
            [
              -76.1981812,
              3.4809611
            ],
            [
              -76.1982773,
              3.4813003
            ],
            [
              -76.1979474,
              3.481442
            ],
            [
              -76.1977309,
              3.481735
            ],
            [
              -76.1974632,
              3.4818635
            ],
            [
              -76.1975038,
              3.4822056
            ],
            [
              -76.1972859,
              3.4823841
            ],
            [
              -76.1972834,
              3.4825506
            ],
            [
              -76.1977662,
              3.4826073
            ],
            [
              -76.1980899,
              3.4834575
            ],
            [
              -76.1981107,
              3.484026
            ],
            [
              -76.198004,
              3.4842122
            ],
            [
              -76.1979572,
              3.4844105
            ],
            [
              -76.1980866,
              3.4848683
            ],
            [
              -76.1978623,
              3.4852844
            ],
            [
              -76.1976006,
              3.4853754
            ],
            [
              -76.1962834,
              3.4857385
            ],
            [
              -76.1957866,
              3.486
            ]
          ]
        ]
      }
    }
  ]
}